GLOBALSTAR M001         
1 25162U 98008A   24128.25243771 -.00000033  00000+0  49161-3 0  9999
2 25162  52.0036  74.7000 0001720 101.1258  46.9597 12.38184054193537
GLOBALSTAR M004         
1 25163U 98008B   24128.20935594 -.00000033  00000+0  39306-3 0  9996
2 25163  51.9985 212.6592 0003424 113.1160 269.1936 12.63358177210472
GLOBALSTAR M002         
1 25164U 98008C   24127.88703044 -.00000030  00000+0  90943-3 0  9994
2 25164  51.9988 178.9280 0001456 131.4445 228.6500 11.61502713136856
GLOBALSTAR M003         
1 25165U 98008D   24128.55738122  .00000042  00000+0  14018-2 0  9995
2 25165  51.9845 211.9676 0008258 194.1978 270.5094 12.11999946184121
GLOBALSTAR M014         
1 25306U 98023A   24128.39798567 -.00000063  00000+0  26317-3 0  9990
2 25306  51.9812 109.3982 0001070 338.6692 190.1390 11.65467646143840
GLOBALSTAR M006         
1 25307U 98023B   24128.23820778 -.00000033  00000+0  87623-3 0  9998
2 25307  51.9901 147.1062 0003446  97.6420 344.0990 11.58163231169905
GLOBALSTAR M015         
1 25308U 98023C   24127.54703073 -.00000014  00000+0  13679-2 0  9998
2 25308  51.9809 228.6620 0012766  75.9299 297.7633 11.48851707147349
GLOBALSTAR M008         
1 25309U 98023D   24128.23937072 -.00000054  00000+0  33099-3 0  9997
2 25309  51.9969 294.9732 0002945  55.5688 115.9902 12.36043097187955
